0 SL-12 R/B(2)
1 18387U 87084D   13281.13340706 -.00000301  00000-0  10000-3 0  8687
2 18387 014.5933 008.9713 0032327 118.4867 241.8453 01.00046581102458
0 SL-12 R/B(2)
1 18387U 87084D   13284.13191480 -.00000305  00000-0  10000-3 0  8698
2 18387 014.5951 008.9398 0032248 118.5197 241.8097 01.00045421102485
0 SL-12 R/B(2)
1 18387U 87084D   13287.13043725 -.00000306  00000-0  10000-3 0  8702
2 18387 014.5969 008.9086 0032074 118.5655 241.7526 01.00044229102519
0 SL-12 R/B(2)
1 18387U 87084D   13290.12898209 -.00000301  00000-0  10000-3 0  8716
2 18387 014.5988 008.8774 0032119 118.6408 241.6639 01.00043084102545
0 SL-12 R/B(2)
1 18387U 87084D   13292.12806254 -.00000295  00000-0  10000-3 0  8720
2 18387 014.6000 008.8563 0032117 118.7686 241.5340 01.00042282102563
0 SL-12 R/B(2)
1 18387U 87084D   13295.12671568 -.00000282  00000-0  10000-3 0  8738
2 18387 014.6017 008.8252 0031996 119.2004 241.1040 01.00041162102592
